[{"icaoId":"MKJP","receiptTime":"2026-05-30T16:09:26.674Z","obsTime":1780156800,"reportTime":"2026-05-30T16:00:00.000Z","temp":31,"dewp":24,"wdir":130,"wspd":13,"altim":1015,"qcField":0,"metarType":"METAR","rawOb":"METAR MKJP 301600Z 13013KT //// ////// 31/24 Q1015 RMK CLD FROM CEILOMETER RWY 30 NCD","lat":17.942,"lon":-76.798,"elev":3,"name":"Kingston/Manley Intl, KI, JM"},{"icaoId":"KMIA","receiptTime":"2026-05-30T15:58:26.951Z","obsTime":1780156380,"reportTime":"2026-05-30T16:00:00.000Z","temp":30,"dewp":23.3,"wdir":300,"wspd":5,"visib":"10+","altim":1015.7,"slp":1015.6,"qcField":13,"metarType":"METAR","rawOb":"METAR KMIA 301553Z COR 30005KT 10SM FEW035 BKN150 OVC250 30/23 A2999 RMK AO2 SLP156 T03000233 $","lat":25.7881,"lon":-80.3169,"elev":1,"name":"Miami Intl, FL, US","cover":"OVC","clouds":[{"cover":"FEW","base":3500},{"cover":"BKN","base":15000},{"cover":"OVC","base":25000}],"fltCat":"VFR"},{"icaoId":"KFLL","receiptTime":"2026-05-30T15:56:39.629Z","obsTime":1780156380,"reportTime":"2026-05-30T16:00:00.000Z","temp":30,"dewp":22.8,"wdir":0,"wspd":0,"visib":"10+","altim":1015.3,"slp":1015.1,"qcField":4,"metarType":"METAR","rawOb":"METAR KFLL 301553Z 00000KT 10SM FEW040 SCT150 OVC250 30/23 A2998 RMK AO2 SLP151 T03000228","lat":26.0787,"lon":-80.1622,"elev":1,"name":"Ft Lauderdale-Hollywood Intl, FL, US","cover":"OVC","clouds":[{"cover":"FEW","base":4000},{"cover":"SCT","base":15000},{"cover":"OVC","base":25000}],"fltCat":"VFR"}]